OPTICUBE 04             
1 41851U 16067D   24313.89380996  .00009909  00000+0  70426-3 0  9992
2 41851  98.0863 125.2110 0016632 293.0085  66.9386 15.04798757436983
AEROCUBE 8D             
1 41852U 16067E   24313.46003142  .00021798  00000+0  12706-2 0  9997
2 41852  98.1123 131.0045 0004758 352.9844   7.1317 15.11997189437160
AEROCUBE 8C             
1 41853U 16067F   24313.47582416  .00019835  00000+0  11563-2 0  9994
2 41853  98.0953 129.2533 0006201 275.2915  84.7606 15.12009982437150
PROMETHEUS 2-1          
1 41854U 16067G   24313.49484115  .00054704  00000+0  20489-2 0  9995
2 41854  98.0968 139.4806 0009670 286.1197  73.8975 15.27043796437671
PROMETHEUS 2-3          
1 41855U 16067H   24313.49655918  .00049542  00000+0  18629-2 0  9994
2 41855  98.0905 138.8313 0008337 297.1230  62.9156 15.26952441437673
CORVUS BC2              
1 42846U 17042X   24313.87212440  .00010594  00000+0  85334-3 0  9993
2 42846  97.3756 131.1648 0008251 298.3463  61.6929 15.00077784399113
CORVUS BC1              
1 42847U 17042Y   24313.75166862  .00010531  00000+0  84561-3 0  9999
2 42847  97.3713 131.4669 0008542 281.7232  78.3033 15.00197446399115
MIRATA                  
1 43015U 17073C   24313.92857800  .00068790  00000+0  24036-2 0  9999
2 43015  97.5684 197.8856 0140787 121.6294 239.8767 15.20325262378211
MAKERSAT 0              
1 43016U 17073D   24313.93112860  .00030388  00000+0  15018-2 0  9993
2 43016  97.5492 189.2664 0174741 150.7123 210.4040 15.05333443377639
SIRION PATHFINDER-2     
1 43759U 18099B   24313.92404658  .00015038  00000+0  10354-2 0  9997
2 43759  97.5102   6.1265 0011184 148.2229 211.9675 15.05914073324260
CORVUS BC4              
1 43767U 18099K   24313.90434213  .00013978  00000+0  99126-3 0  9990
2 43767  97.4924   2.8363 0009242 205.9685 154.1079 15.04842266324136
MOVE-II                 
1 43780U 18099Y   24313.75700042  .00073513  00000+0  25754-2 0  9990
2 43780  97.5003  16.3681 0004735 185.1472 174.9720 15.29181425324906
SPACEBEE-7              
1 43816U 18099BL  24313.91196249  .00046850  00000+0  21551-2 0  9991
2 43816  97.5299  16.4382 0008878 141.3787 218.8084 15.20145616324327
SPACEBEE-6              
1 43818U 18099BN  24313.69078644  .00218760  00000+0  37647-2 0  9990
2 43818  97.5175  25.3262 0003333 150.6543 209.4896 15.50290359325047
SHIELDS 1               
1 43850U 18104B   24313.87060732  .00038045  00000+0  78618-3 0  9992
2 43850  85.0225 184.4366 0006408 239.2271 120.8353 15.45641036328448
SONATE                  
1 44400U 19038Q   24313.73264689  .00068557  00000+0  13745-2 0  9993
2 44400  97.7150 315.4312 0010250 319.6286  40.4201 15.46419367296313
LUCKY-7                 
1 44406U 19038W   24313.75610293  .00304728  00000+0  18958-2 0  9991
2 44406  97.6928 322.9941 0002763 270.7044  89.3904 15.76093496296834
DUCHIFAT-3              
1 44854U 19089C   24313.88431213  .00052252  00000+0  19811-2 0  9992
2 44854  36.9531 245.3389 0012304 244.9028 115.0445 15.25823186270300
M2 PATHFINDER           
1 45727U 20037E   24313.72946784  .00009613  00000+0  78993-3 0  9994
2 45727  97.7835 129.6767 0012183   7.6561 352.4846 14.99322466237587
NETSAT-4                
1 46504U 20068U   24313.80438632  .00029449  00000+0  13287-2 0  9992
2 46504  97.8229 275.4981 0007138 206.7891 153.2976 15.20938033226104
NETSAT-3                
1 46505U 20068V   24313.64826386  .00029556  00000+0  13596-2 0  9994
2 46505  97.8214 274.6626 0006335 220.1008 139.9759 15.20275917226064
NETSAT-1                
1 46506U 20068W   24313.83157829  .00023689  00000+0  11815-2 0  9998
2 46506  97.8238 273.8904 0005210 235.0164 125.0579 15.17519878226025
NETSAT-2                
1 46507U 20068X   24313.69400781  .00029418  00000+0  13320-2 0  9990
2 46507  97.8217 274.9741 0003977 238.2978 121.7869 15.20831883226033
WILDTRACKCUBE-SIMBA     
1 47941U 21022K   24313.87796871  .00045123  00000+0  15592-2 0  9996
2 47941  97.4406 209.8934 0013480   7.6282 352.5161 15.29699360200514
GRBALPHA                
1 47959U 21022AD  24313.86933204  .00076109  00000+0  19629-2 0  9990
2 47959  97.4402 213.0755 0010614   2.9597 357.1709 15.38840485199545
BEESAT-8                
1 48085U 21022AP  24313.68148899  .00152903  00000+0  24404-2 0  9993
2 48085  97.4677 218.7312 0006449  10.8794 349.2597 15.52639709200113
LEDSAT                  
1 49069U 21073D   24313.63215255  .00057626  00000+0  16787-2 0  9999
2 49069  97.4202  24.5314 0016033 129.5435 230.7227 15.35064252178524
ROBUSTA-1F (MTCUBE 2)   
1 53109U 22080E   24313.52490461 -.00000003  00000+0  00000+0 0  9996
2 53109  70.1141 141.9381 0008315  57.5623 302.5840  6.42584296 54430
SITRO-AIS 5 (KATYS)     
1 57176U 23091L   24313.91136835  .00024296  00000+0  13668-2 0  9998
2 57176  97.5929   5.1091 0015990 350.8155   9.2781 15.13144353 75342
SITRO-AIS 6 (CHIRKIN)   
1 57192U 23091AC  24313.89220800  .00023366  00000+0  13142-2 0  9993
2 57192  97.5932   5.1210 0015825 350.9118   9.1824 15.13163794 75341
SITRO-AIS 8 (ANOKHIN)   
1 57193U 23091AD  24313.88208508  .00025865  00000+0  14264-2 0  9996
2 57193  97.5930   5.2767 0015475 352.1134   7.9852 15.13849985 75352
SITRO-AIS 7 (FARTUSHNIY)
1 57194U 23091AE  24313.90295478  .00024051  00000+0  13558-2 0  9993
2 57194  97.5927   5.0978 0015780 351.3153   8.7803 15.13076783 75344
SITRO-AIS 10 (BURDAEV)  
1 57199U 23091AK  24313.92618419  .00028922  00000+0  14967-2 0  9990
2 57199  97.5939   6.6927 0010634 339.9337  20.1476 15.16138350 75449
SITRO-AIS 9 (SHCHUKIN)  
1 57201U 23091AM  24313.86130478  .00028358  00000+0  14703-2 0  9992
2 57201  97.5935   6.5930 0010602 340.4415  19.6410 15.16075903 75435
SITRO-AIS 12 (SMIRENNIY)
1 57204U 23091AQ  24313.87120634  .00027979  00000+0  14427-2 0  9990
2 57204  97.5948   6.7940 0010343 334.4513  25.6207 15.16274949 75442
SITRO-AIS 11 (SHEFFER)  
1 57208U 23091AU  24313.91254740  .00029004  00000+0  14893-2 0  9993
2 57208  97.5943   6.8777 0010311 333.7864  26.2845 15.16414962 75453
VERONIKA                
1 58261U 23174F   24313.87055652  .00069088  00000+0  21522-2 0  9994
2 58261  97.4444  28.1848 0010038  91.7096 268.5296 15.32961495 55778
ROBUSTA-1E (ENSO)       
1 58470U 23185J   24313.87474586  .00054211  00000+0  16860-2 0  9990
2 58470  97.4075  19.7582 0010858 124.3108 235.9164 15.33077170 52226
SITRO-AIS 29            
1 59052U 24039B   24313.89866943  .00085067  00000+0  19572-2 0  9996
2 59052  97.4066 276.0362 0017280  68.9169 291.3924 15.42173604 38776
SITRO-AIS 30            
1 59053U 24039C   24313.91521363  .00084219  00000+0  19636-2 0  9993
2 59053  97.4065 276.0083 0017530  69.4371 290.8754 15.41773145 38764
SITRO-AIS 31            
1 59054U 24039D   24313.88868029  .00087325  00000+0  20118-2 0  9991
2 59054  97.4063 276.0446 0017300  69.5002 290.8100 15.42124108 38780
SITRO-AIS 33            
1 59055U 24039E   24313.93411901  .00089454  00000+0  20527-2 0  9990
2 59055  97.4066 276.1478 0017004  69.9527 290.3549 15.42239918 38785
SITRO-AIS 35            
1 59056U 24039F   24313.92914183  .00089364  00000+0  20478-2 0  9995
2 59056  97.4065 276.1494 0016865  70.4235 289.8831 15.42284222 38785
SITRO-AIS 32            
1 59057U 24039G   24313.88662625  .00083383  00000+0  19317-2 0  9997
2 59057  97.4069 276.0595 0017133  70.8147 289.4953 15.41976669 38778
SITRO-AIS 34            
1 59058U 24039H   24313.93366394  .00087142  00000+0  19979-2 0  9999
2 59058  97.4067 276.1500 0016877  70.1903 290.1161 15.42277648 38784
SITRO-AIS 36            
1 59059U 24039J   24313.91568078  .00089550  00000+0  20465-2 0  9998
2 59059  97.4066 276.1683 0016890  70.5463 289.7608 15.42364343 38785
SITRO-AIS 49            
1 59060U 24039K   24313.92706461  .00085321  00000+0  19677-2 0  9996
2 59060  97.4070 276.1555 0016777  69.8286 290.4764 15.42110536 38783
SITRO-AIS 50            
1 59061U 24039L   24313.89223093  .00088374  00000+0  20015-2 0  9997
2 59061  97.4066 276.1972 0016732  69.9202 290.3844 15.42641770 38789
SITRO-AIS 51            
1 59062U 24039M   24313.89130775  .00090354  00000+0  20429-2 0  9992
2 59062  97.4064 276.1972 0016699  70.5238 289.7811 15.42684663 38781
SITRO-AIS 52            
1 59063U 24039N   24313.87464744  .00087863  00000+0  19806-2 0  9995
2 59063  97.4066 276.2232 0016442  70.6791 289.6232 15.42789442 38782
SITRO-AIS 25            
1 59066U 24039R   24313.90302043  .00012909  00000+0  11659-2 0  9992
2 59066  95.3889 195.4742 0162846 203.6152 155.7536 14.85883616 37572
SITRO-AIS 26            
1 59067U 24039S   24313.90895041  .00011572  00000+0  10486-2 0  9990
2 59067  95.3890 195.4681 0163000 203.6780 155.6882 14.85759290 37570
SITRO-AIS 27            
1 59068U 24039T   24313.87974859  .00012613  00000+0  11364-2 0  9995
2 59068  95.3888 195.5008 0162428 203.4576 155.9179 14.86024307 37573
SITRO-AIS 28            
1 59071U 24039U   24313.94006963  .00011904  00000+0  10719-2 0  9994
2 59071  95.3888 195.5554 0162259 203.2242 156.1592 14.86071198 37586
GRBBETA                 
1 60237U 24128C   24313.83079973  .00012838  00000+0  10567-2 0  9996
2 60237  61.9931  99.4705 0025204   1.0240 359.0896 14.99177270 18267
OOV-CUBE (TUBSAT-30)    
1 60240U 24128F   24313.69742230  .00009215  00000+0  78893-3 0  9999
2 60240  61.9973 100.5279 0023266 355.5782   4.5097 14.97948209 18240
ROBUSTA-3A (MEDITERRAN*)
1 60243U 24128J   24313.68700013  .00020306  00000+0  16622-2 0  9999
2 60243  61.9908 100.3834 0023473 347.5071  12.5434 14.99158386 18243
